{
  "type": "FeatureCollection",
  "features": [
    {
      "type": "Feature",
      "properties": {
        "norad_id": 19071,
        "name": "OSCAR 32",
        "group": "nnss",
        "lat": 18.67866571980299,
        "lon": -163.42689512826354,
        "alt_km": 1015.4632392513713,
        "timestamp": "2025-12-10T18:57:00.334123+00:00",
        "meta_object_name": "OSCAR 32",
        "meta_object_id": "1988-033B",
        "meta_epoch": "2025-12-10T04:02:11.577120",
        "meta_mean_motion": 13.27953499,
        "meta_eccentricity": 0.01881562,
        "meta_inclination": 90.3219,
        "meta_ra_of_asc_node": 16.4448,
        "meta_arg_of_pericenter": 173.9306,
        "meta_mean_anomaly": 258.7457,
        "meta_ephemeris_type": 0,
        "meta_classification_type": "U",
        "meta_norad_cat_id": 19071,
        "meta_element_set_no": 999,
        "meta_rev_at_epoch": 82231,
        "meta_bstar": 0.00017276505,
        "meta_mean_motion_dot": 9.5e-07,
        "meta_mean_motion_ddot": 0,
        "tle_line1": "1 19071U 88033B   25344.16818955  .00000095  00000+0  17277-3 0  9991",
        "tle_line2": "2 19071  90.3219  16.4448 0188156 173.9306 258.7457 13.27953499822315"
      },
      "geometry": {
        "type": "Point",
        "coordinates": [
          -163.42689512826354,
          18.67866571980299
        ]
      }
    },
    {
      "type": "Feature",
      "properties": {
        "norad_id": 19223,
        "name": "NOVA 2",
        "group": "nnss",
        "lat": 34.01302774598878,
        "lon": 78.28355593171534,
        "alt_km": 1148.5850928252266,
        "timestamp": "2025-12-10T18:57:00.334134+00:00",
        "meta_object_name": "NOVA 2",
        "meta_object_id": "1988-052A",
        "meta_epoch": "2025-12-10T08:13:12.213408",
        "meta_mean_motion": 13.22935631,
        "meta_eccentricity": 0.0030792,
        "meta_inclination": 89.9871,
        "meta_ra_of_asc_node": 78.2754,
        "meta_arg_of_pericenter": 23.4344,
        "meta_mean_anomaly": 42.5562,
        "meta_ephemeris_type": 0,
        "meta_classification_type": "U",
        "meta_norad_cat_id": 19223,
        "meta_element_set_no": 999,
        "meta_rev_at_epoch": 80916,
        "meta_bstar": 0.00019451,
        "meta_mean_motion_dot": 9.1e-07,
        "meta_mean_motion_ddot": 0,
        "tle_line1": "1 19223U 88052A   25344.34250247  .00000091  00000+0  19451-3 0  9997",
        "tle_line2": "2 19223  89.9871  78.2754 0030792  23.4344  42.5562 13.22935631809168"
      },
      "geometry": {
        "type": "Point",
        "coordinates": [
          78.28355593171534,
          34.01302774598878
        ]
      }
    },
    {
      "type": "Feature",
      "properties": {
        "norad_id": 19419,
        "name": "OSCAR 25",
        "group": "nnss",
        "lat": -26.842400874198468,
        "lon": 20.255500658737812,
        "alt_km": 1094.4664645529829,
        "timestamp": "2025-12-10T18:57:00.334144+00:00",
        "meta_object_name": "OSCAR 25",
        "meta_object_id": "1988-074A",
        "meta_epoch": "2025-12-10T12:32:06.088416",
        "meta_mean_motion": 13.42622723,
        "meta_eccentricity": 0.0094362,
        "meta_inclination": 90.0349,
        "meta_ra_of_asc_node": 20.2369,
        "meta_arg_of_pericenter": 252.2793,
        "meta_mean_anomaly": 228.7267,
        "meta_ephemeris_type": 0,
        "meta_classification_type": "U",
        "meta_norad_cat_id": 19419,
        "meta_element_set_no": 999,
        "meta_rev_at_epoch": 82610,
        "meta_bstar": 0.00021789,
        "meta_mean_motion_dot": 1.35e-06,
        "meta_mean_motion_ddot": 0,
        "tle_line1": "1 19419U 88074A   25344.52229269  .00000135  00000+0  21789-3 0  9994",
        "tle_line2": "2 19419  90.0349  20.2369 0094362 252.2793 228.7267 13.42622723826100"
      },
      "geometry": {
        "type": "Point",
        "coordinates": [
          20.255500658737812,
          -26.842400874198468
        ]
      }
    },
    {
      "type": "Feature",
      "properties": {
        "norad_id": 19420,
        "name": "OSCAR 31",
        "group": "nnss",
        "lat": -35.81051071540184,
        "lon": -159.43874186764975,
        "alt_km": 1045.7707145710492,
        "timestamp": "2025-12-10T18:57:00.334154+00:00",
        "meta_object_name": "OSCAR 31",
        "meta_object_id": "1988-074B",
        "meta_epoch": "2025-12-10T08:59:02.817024",
        "meta_mean_motion": 13.42584048,
        "meta_eccentricity": 0.0092632,
        "meta_inclination": 90.0365,
        "meta_ra_of_asc_node": 20.5861,
        "meta_arg_of_pericenter": 246.8053,
        "meta_mean_anomaly": 123.5934,
        "meta_ephemeris_type": 0,
        "meta_classification_type": "U",
        "meta_norad_cat_id": 19420,
        "meta_element_set_no": 999,
        "meta_rev_at_epoch": 82619,
        "meta_bstar": 0.00017491,
        "meta_mean_motion_dot": 1.1e-06,
        "meta_mean_motion_ddot": 0,
        "tle_line1": "1 19420U 88074B   25344.37433816  .00000110  00000+0  17491-3 0  9992",
        "tle_line2": "2 19420  90.0365  20.5861 0092632 246.8053 123.5934 13.42584048826195"
      },
      "geometry": {
        "type": "Point",
        "coordinates": [
          -159.43874186764975,
          -35.81051071540184
        ]
      }
    }
  ]
}